      3.03          N: GNSS NAV DATA    G: GPS              RINEX VERSION / TYPE
SKYDEL              OROLIA              08-Jan-23 09:59     PGM / RUN BY / DATE
                                                            END OF HEADER
G19 2023 01 08 14 00 00 2.615941702970E-04 5.115907697473E-12 0.000000000000E+00
     4.000000000000E+00 1.164687500000E+02 3.901591088358E-09-8.104128372615E-01
     6.088986992836E-06 9.039728902280E-03 8.396804332733E-06 5.153604814529E+03
     5.040000000000E+04-1.117587089539E-08-2.466110528385E+00 1.359730958939E-07
     9.752745548199E-01 2.241875000000E+02 2.226609532962E+00-7.578172804173E-09
     3.035840740667E-11 1.000000000000E+00 2.244000000000E+03 1.000000000000E+00
     2.000000000000E+00 0.000000000000E+00-1.536682248116E-08 4.000000000000E+00
     9.999000000000E+08 4.000000000000E+00
G20 2023 01 08 14 00 00 4.582573528751E-04-2.387423592154E-12 0.000000000000E+00
     4.000000000000E+00-1.031250000000E+02 4.898061166765E-09 2.093776117367E+00
    -5.312263965607E-06 4.590460215695E-03 3.533437848091E-06 5.153722936630E+03
     5.040000000000E+04 8.009374141693E-08-6.420219745008E-01 1.490116119385E-08
     9.466416004967E-01 3.050000000000E+02-2.957447101588E+00-8.464995458181E-09
    -2.053656971627E-10 1.000000000000E+00 2.244000000000E+03 1.000000000000E+00
     2.000000000000E+00 0.000000000000E+00-8.381903171539E-09 4.000000000000E+00
     9.999000000000E+08 4.000000000000E+00
G21 2023 01 08 14 00 00 1.533080576337E-04 3.410605131648E-13 0.000000000000E+00
     4.000000000000E+00 6.146875000000E+01 4.666980112740E-09-2.941905440435E+00
     2.775341272354E-06 2.477401285432E-02 7.804483175278E-07 5.153663856506E+03
     5.040000000000E+04 5.383044481277E-07-1.609321849040E+00-7.636845111847E-08
     9.610702506964E-01 3.535000000000E+02-8.415675452719E-01-8.304274477793E-09
    -1.678641350722E-11 1.000000000000E+00 2.244000000000E+03 1.000000000000E+00
     2.000000000000E+00 0.000000000000E+00-1.024454832077E-08 4.000000000000E+00
     9.999000000000E+08 4.000000000000E+00
G22 2023 01 08 14 00 00 4.019597981823E-04 7.958078640513E-12 0.000000000000E+00
     4.000000000000E+00-4.759375000000E+01 4.270535027783E-09 3.111536969614E+00
    -2.423301339149E-06 1.371838781051E-02 1.070834696293E-05 5.153777706146E+03
     5.040000000000E+04-2.663582563400E-07 6.518768041655E-01 9.313225746155E-09
     9.622924679610E-01 1.755625000000E+02-1.838818254687E+00-7.969260523117E-09
     4.696624204679E-10 1.000000000000E+00 2.244000000000E+03 1.000000000000E+00
     2.000000000000E+00 0.000000000000E+00-8.381903171539E-09 4.000000000000E+00
     9.999000000000E+08 0.000000000000E+00
G23 2023 01 08 14 00 00 1.948159479071E-06 1.023181539495E-12 0.000000000000E+00
     4.000000000000E+00-1.279375000000E+02 4.107313943255E-09 2.740756576330E-01
    -6.595626473427E-06 2.952916780487E-03 4.926696419716E-06 5.153648674011E+03
     5.040000000000E+04-6.146728992462E-08-5.065277075979E-01 1.303851604462E-08
     9.721311292550E-01 2.913437500000E+02-3.138238431130E+00-7.977117993270E-09
    -1.882221259213E-10 1.000000000000E+00 2.244000000000E+03 1.000000000000E+00
     2.000000000000E+00 0.000000000000E+00-8.381903171539E-09 4.000000000000E+00
     9.999000000000E+08 4.000000000000E+00
G24 2023 01 08 14 00 00-2.164361649193E-05-1.682565198280E-11 0.000000000000E+00
     4.000000000000E+00 1.518750000000E+01 5.628805890930E-09 1.429183701451E+00
     1.011416316032E-06 1.365075598005E-02 5.526468157768E-06 5.153654033661E+03
     5.040000000000E+04 5.215406417847E-08 1.531365386281E+00 2.495944499969E-07
     9.335267919723E-01 2.601562500000E+02 8.775474800035E-01-8.637502643798E-09
     3.385855320179E-10 1.000000000000E+00 2.244000000000E+03 1.000000000000E+00
     2.000000000000E+00 0.000000000000E+00 2.793967723846E-09 4.000000000000E+00
     9.999000000000E+08 4.000000000000E+00
G25 2023 01 08 14 00 00 4.096187039977E-04 3.410605131648E-12 0.000000000000E+00
     4.000000000000E+00-8.593750000000E+00 4.765912805113E-09-3.249020865554E-01
    -5.085021257401E-07 1.108150626533E-02 8.147209882736E-06 5.153559812546E+03
     5.040000000000E+04 1.974403858185E-07 2.653472469950E+00-4.470348358154E-08
     9.544772811928E-01 2.176250000000E+02 1.014538002117E+00-7.826040271705E-09
    -4.171602335410E-10 1.000000000000E+00 2.244000000000E+03 1.000000000000E+00
     2.000000000000E+00 0.000000000000E+00 5.587935447693E-09 4.000000000000E+00
     9.999000000000E+08 4.000000000000E+00
G26 2023 01 08 14 00 00 2.399972145213E-04 6.821210263297E-13 0.000000000000E+00
     4.000000000000E+00-1.512500000000E+01 5.257361847366E-09-1.119893302874E+00
    -1.052394509315E-06 7.743903552182E-03 7.862225174904E-06 5.153615425110E+03
     5.040000000000E+04 8.009374141693E-08 2.600425861718E+00-1.341104507446E-07
     9.352155633221E-01 2.141250000000E+02 4.292856505219E-01-8.186055267774E-09
    -4.168030758068E-10 1.000000000000E+00 2.244000000000E+03 1.000000000000E+00
     2.000000000000E+00 0.000000000000E+00 6.984919309616E-09 4.000000000000E+00
     9.999000000000E+08 4.000000000000E+00
G27 2023 01 08 14 00 00 1.316944544669E-04-9.549694368616E-12 0.000000000000E+00
     4.000000000000E+00 1.214375000000E+02 4.053383125391E-09-2.888021223219E+00
     6.178393959999E-06 1.108452759217E-02 1.029483973980E-05 5.153668575287E+03
     5.040000000000E+04-1.601874828339E-07-2.575445470127E+00-2.104789018631E-07
     9.697376948388E-01 1.835000000000E+02 6.876362430839E-01-7.601388056895E-09
    -2.035799084918E-11 1.000000000000E+00 2.244000000000E+03 1.000000000000E+00
     2.000000000000E+00 0.000000000000E+00 1.396983861923E-09 4.000000000000E+00
     9.999000000000E+08 4.000000000000E+00
G29 2023 01 08 14 00 00-5.792837182526E-04-2.273736754432E-12 0.000000000000E+00
     4.000000000000E+00 1.268437500000E+02 3.818730494025E-09-2.930100188096E+00
     6.459653377533E-06 2.121930825524E-03 8.940696716309E-06 5.153605520248E+03
     5.040000000000E+04 1.303851604462E-08-2.496986183714E+00-2.793967723846E-08
     9.784981290261E-01 2.132187500000E+02 2.433085132356E+00-7.671390972798E-09
    -4.071598169835E-11 1.000000000000E+00 2.244000000000E+03 1.000000000000E+00
     2.000000000000E+00 0.000000000000E+00-1.024454832077E-08 4.000000000000E+00
     9.999000000000E+08 4.000000000000E+00
G30 2023 01 08 14 00 00-5.337176262401E-04 9.094947017729E-13 0.000000000000E+00
     4.000000000000E+00 1.328125000000E+01 5.437369345401E-09 4.082243245929E-01
     5.010515451431E-07 6.013461272232E-03 5.196779966354E-06 5.153647891998E+03
     5.040000000000E+04 5.960464477539E-08 1.627908074003E+00-4.284083843231E-08
     9.350921559645E-01 2.630937500000E+02-2.664462356523E+00-8.357133822454E-09
     3.493002640438E-10 1.000000000000E+00 2.244000000000E+03 1.000000000000E+00
     2.000000000000E+00 0.000000000000E+00 3.725290298462E-09 4.000000000000E+00
     9.999000000000E+08 4.000000000000E+00
G31 2023 01 08 14 00 00-2.057692763628E-04-1.136868377216E-12 0.000000000000E+00
     4.000000000000E+00 6.250000000000E+00 5.054139096609E-09-3.758391138510E-02
     4.656612873077E-08 1.078418572433E-02 5.479902029037E-06 5.153630178452E+03
     5.040000000000E+04 1.080334186554E-07 1.639103211776E+00-1.601874828339E-07
     9.540851791002E-01 2.689687500000E+02 4.903260258757E-01-8.087836890870E-09
     3.971594004260E-10 1.000000000000E+00 2.244000000000E+03 1.000000000000E+00
     2.000000000000E+00 0.000000000000E+00-1.350417733192E-08 4.000000000000E+00
     9.999000000000E+08 4.000000000000E+00
G32 2023 01 08 14 00 00-3.578046889743E-04-1.250555214938E-11 0.000000000000E+00
     4.000000000000E+00-5.646875000000E+01 4.186245802512E-09-2.190344438047E+00
    -2.818182110786E-06 6.421502330340E-03 1.085363328457E-05 5.153701509476E+03
     5.040000000000E+04-1.657754182816E-07 5.604238463942E-01-8.940696716309E-08
     9.593054614602E-01 1.676562500000E+02-2.280754424931E+00-7.726036106130E-09
     5.057353516217E-10 1.000000000000E+00 2.244000000000E+03 1.000000000000E+00
     2.000000000000E+00 0.000000000000E+00 4.656612873077E-10 4.000000000000E+00
     9.999000000000E+08 4.000000000000E+00
G01 2023 01 08 16 00 00 2.267707677674E-04-4.774847184308E-12 0.000000000000E+00
     5.000000000000E+00 4.684375000000E+01 4.114099940205E-09 2.195730779663E+00
     2.561137080193E-06 1.217794988770E-02 1.572072505951E-06 5.153651281357E+03
     5.760000000000E+04 9.685754776001E-08-1.509507405751E+00 2.831220626831E-07
     9.889947743907E-01 3.624375000000E+02 9.377089341753E-01-8.193912737927E-09
     2.285809498855E-11 1.000000000000E+00 2.244000000000E+03 1.000000000000E+00
     2.000000000000E+00 0.000000000000E+00 4.656612873077E-09 5.000000000000E+00
     9.999000000000E+08 4.000000000000E+00
G02 2023 01 08 16 00 00-6.284054979915E-04 2.273736754432E-12 0.000000000000E+00
     5.000000000000E+00 7.253125000000E+01 4.387325606865E-09 1.226385724992E+00
     4.112720489502E-06 2.012357395142E-02 7.413327693939E-07 5.153693735123E+03
     5.760000000000E+04 1.247972249985E-07-1.605551794740E+00 4.172325134277E-07
     9.667419341334E-01 3.710000000000E+02-1.343086657270E+00-8.171411800672E-09
     8.178912113090E-11 1.000000000000E+00 2.244000000000E+03 1.000000000000E+00
     2.000000000000E+00 0.000000000000E+00-1.769512891769E-08 5.000000000000E+00
     9.999000000000E+08 4.000000000000E+00
G03 2023 01 08 16 00 00-3.731825163413E-04 1.932676241267E-12 0.000000000000E+00
     5.000000000000E+00-1.160625000000E+02 4.006238304477E-09 1.053705489742E+00
    -5.951151251793E-06 4.433040856384E-03 5.014240741730E-06 5.153747385025E+03
     5.760000000000E+04 6.705522537231E-08-4.774043039541E-01-9.126961231232E-08
     9.772735091243E-01 2.923437500000E+02 1.030680735510E+00-7.838897950136E-09
    -2.121516941125E-10 1.000000000000E+00 2.244000000000E+03 1.000000000000E+00
     2.000000000000E+00 0.000000000000E+00 1.862645149231E-09 5.000000000000E+00
     9.999000000000E+08 4.000000000000E+00
